[{"OBJECT_NAME":"ONEWEB-0068","OBJECT_ID":"2020-020Y","EPOCH":"2026-03-09T21:23:24.156384","MEAN_MOTION":13.11417597,"ECCENTRICITY":0.00016411,"INCLINATION":87.8871,"RA_OF_ASC_NODE":40.7983,"ARG_OF_PERICENTER":84.0207,"MEAN_ANOMALY":276.1108,"EPHEMERIS_TYPE":0,"CLASSIFICATION_TYPE":"U","NORAD_CAT_ID":45446,"ELEMENT_SET_NO":999,"REV_AT_EPOCH":28958,"BSTAR":0.00046109211,"MEAN_MOTION_DOT":1.76e-6,"MEAN_MOTION_DDOT":0},{"OBJECT_NAME":"BREEZE-M DEB","OBJECT_ID":"2006-006AL","EPOCH":"2026-03-08T08:38:21.331968","MEAN_MOTION":5.48366001,"ECCENTRICITY":0.49641842,"INCLINATION":51.6809,"RA_OF_ASC_NODE":91.6099,"ARG_OF_PERICENTER":69.1352,"MEAN_ANOMALY":336.1151,"EPHEMERIS_TYPE":0,"CLASSIFICATION_TYPE":"U","NORAD_CAT_ID":32497,"ELEMENT_SET_NO":999,"REV_AT_EPOCH":3490,"BSTAR":0.0024548879,"MEAN_MOTION_DOT":2.14e-5,"MEAN_MOTION_DDOT":0}]
